ONEWEB-0520             
1 54138U 22138AB  24167.49779538  .00000098  00000+0  21332-3 0  9999
2 54138  87.9149  90.5703 0002568  82.8463 277.2962 13.19725733 80315
ONEWEB-0521             
1 54139U 22138AC  24167.53096698  .00000038  00000+0  63113-4 0  9992
2 54139  87.9149  90.5567 0001854  84.3139 275.8205 13.19725833 80267
ONEWEB-0522             
1 54140U 22138AD  24167.51043689  .00000138  00000+0  31215-3 0  9992
2 54140  87.9148  90.5627 0002173  78.0537 282.0839 13.19725919 80305
ONEWEB-0523             
1 54141U 22138AE  24167.59866247 -.00000018  00000+0 -76056-4 0  9996
2 54141  87.9219  59.9981 0001134  58.7871 301.3373 13.20772784 82730
ONEWEB-0524             
1 54142U 22138AF  24167.43611283  .00000054  00000+0  10072-3 0  9991
2 54142  87.9218  60.0340 0002195  48.0124 312.1196 13.20771542 82715
ONEWEB-0525             
1 54143U 22138AG  24167.52938823 -.00000003  00000+0 -40619-4 0  9991
2 54143  87.9153  90.5677 0002374  82.8439 277.2964 13.19725738 80322
ONEWEB-0526             
1 54144U 22138AH  24167.48674386  .00000020  00000+0  18826-4 0  9990
2 54144  87.9150  90.5715 0002189  77.8322 282.3056 13.19725578 80299
ONEWEB-0529             
1 54145U 22138AJ  24167.48988698 -.00000001  00000+0 -34063-4 0  9997
2 54145  87.9152  90.5858 0002591  81.8202 278.3224 13.19729434 81185
